LEMUR-2-OZARAK
1 46908U 20081D   24002.57838436  .00026716  00000-0  11961-2 0  9992
2 46908  36.8980  77.5406 0006175  90.5284 269.6170 15.20455422173405
